{
  "type": "FeatureCollection",
  "features": [
    {
      "type": "Feature",
      "properties": {
        "norad_id": 42989,
        "name": "SKYSAT-C9",
        "group": "resource",
        "lat": -26.613157819561657,
        "lon": 135.65578762140476,
        "alt_km": 459.7278452422306,
        "timestamp": "2025-12-27T12:55:14.144566+00:00",
        "meta_object_name": "SKYSAT-C9",
        "meta_object_id": "2017-068C",
        "meta_epoch": "2025-12-27T06:47:05.235072",
        "meta_mean_motion": 15.36423263,
        "meta_eccentricity": 0.00101737,
        "meta_inclination": 97.419,
        "meta_ra_of_asc_node": 131.6545,
        "meta_arg_of_pericenter": 40.8011,
        "meta_mean_anomaly": 319.3993,
        "meta_ephemeris_type": 0,
        "meta_classification_type": "U",
        "meta_norad_cat_id": 42989,
        "meta_element_set_no": 999,
        "meta_rev_at_epoch": 45631,
        "meta_bstar": 0.00039546422,
        "meta_mean_motion_dot": 0.00014001,
        "meta_mean_motion_ddot": 0,
        "tle_line1": "1 42989U 17068C   25361.28269948  .00014001  00000+0  39546-3 0  9994",
        "tle_line2": "2 42989  97.4190 131.6545 0010173  40.8011 319.3993 15.36423263456316"
      },
      "geometry": {
        "type": "Point",
        "coordinates": [
          135.65578762140476,
          -26.613157819561657
        ]
      }
    },
    {
      "type": "Feature",
      "properties": {
        "norad_id": 42990,
        "name": "SKYSAT-C8",
        "group": "resource",
        "lat": 43.00875080038026,
        "lon": -41.403209998974994,
        "alt_km": 462.8908816430867,
        "timestamp": "2025-12-27T12:55:14.144578+00:00",
        "meta_object_name": "SKYSAT-C8",
        "meta_object_id": "2017-068D",
        "meta_epoch": "2025-12-27T07:37:42.314304",
        "meta_mean_motion": 15.33249067,
        "meta_eccentricity": 9.682e-05,
        "meta_inclination": 97.4286,
        "meta_ra_of_asc_node": 131.3845,
        "meta_arg_of_pericenter": 251.4246,
        "meta_mean_anomaly": 108.6891,
        "meta_ephemeris_type": 0,
        "meta_classification_type": "U",
        "meta_norad_cat_id": 42990,
        "meta_element_set_no": 999,
        "meta_rev_at_epoch": 45594,
        "meta_bstar": 0.00042375128,
        "meta_mean_motion_dot": 0.00013544,
        "meta_mean_motion_ddot": 0,
        "tle_line1": "1 42990U 17068D   25361.31785086  .00013544  00000+0  42375-3 0  9991",
        "tle_line2": "2 42990  97.4286 131.3845 0000968 251.4246 108.6891 15.33249067455944"
      },
      "geometry": {
        "type": "Point",
        "coordinates": [
          -41.403209998974994,
          43.00875080038026
        ]
      }
    },
    {
      "type": "Feature",
      "properties": {
        "norad_id": 42991,
        "name": "SKYSAT-C7",
        "group": "resource",
        "lat": -39.8194226815834,
        "lon": 138.88118192090408,
        "alt_km": 471.54037755709214,
        "timestamp": "2025-12-27T12:55:14.144589+00:00",
        "meta_object_name": "SKYSAT-C7",
        "meta_object_id": "2017-068E",
        "meta_epoch": "2025-12-27T06:49:40.258272",
        "meta_mean_motion": 15.32639856,
        "meta_eccentricity": 0.00066824,
        "meta_inclination": 97.4293,
        "meta_ra_of_asc_node": 132.3805,
        "meta_arg_of_pericenter": 10.4561,
        "meta_mean_anomaly": 349.6818,
        "meta_ephemeris_type": 0,
        "meta_classification_type": "U",
        "meta_norad_cat_id": 42991,
        "meta_element_set_no": 999,
        "meta_rev_at_epoch": 45600,
        "meta_bstar": 0.00037885959,
        "meta_mean_motion_dot": 0.00011876,
        "meta_mean_motion_ddot": 0,
        "tle_line1": "1 42991U 17068E   25361.28449373  .00011876  00000+0  37886-3 0  9991",
        "tle_line2": "2 42991  97.4293 132.3805 0006682  10.4561 349.6818 15.32639856456004"
      },
      "geometry": {
        "type": "Point",
        "coordinates": [
          138.88118192090408,
          -39.8194226815834
        ]
      }
    },
    {
      "type": "Feature",
      "properties": {
        "norad_id": 42992,
        "name": "SKYSAT-C6",
        "group": "resource",
        "lat": 31.66736207713408,
        "lon": 128.44292832704596,
        "alt_km": 465.57576977073404,
        "timestamp": "2025-12-27T12:55:14.144600+00:00",
        "meta_object_name": "SKYSAT-C6",
        "meta_object_id": "2017-068F",
        "meta_epoch": "2025-12-26T21:06:12.822048",
        "meta_mean_motion": 15.31783145,
        "meta_eccentricity": 0.0004677,
        "meta_inclination": 97.4325,
        "meta_ra_of_asc_node": 132.4006,
        "meta_arg_of_pericenter": 43.8732,
        "meta_mean_anomaly": 316.288,
        "meta_ephemeris_type": 0,
        "meta_classification_type": "U",
        "meta_norad_cat_id": 42992,
        "meta_element_set_no": 999,
        "meta_rev_at_epoch": 45592,
        "meta_bstar": 0.00040064,
        "meta_mean_motion_dot": 0.00012227,
        "meta_mean_motion_ddot": 0,
        "tle_line1": "1 42992U 17068F   25360.87931507  .00012227  00000+0  40064-3 0  9994",
        "tle_line2": "2 42992  97.4325 132.4006 0004677  43.8732 316.2880 15.31783145455926"
      },
      "geometry": {
        "type": "Point",
        "coordinates": [
          128.44292832704596,
          31.66736207713408
        ]
      }
    },
    {
      "type": "Feature",
      "properties": {
        "norad_id": 43111,
        "name": "CARTOSAT-2F",
        "group": "resource",
        "lat": -19.640562048280184,
        "lon": -123.73434821457775,
        "alt_km": 513.283394013717,
        "timestamp": "2025-12-27T12:55:14.144612+00:00",
        "meta_object_name": "CARTOSAT-2F",
        "meta_object_id": "2018-004A",
        "meta_epoch": "2025-12-27T07:18:08.383680",
        "meta_mean_motion": 15.19269909,
        "meta_eccentricity": 0.00016301,
        "meta_inclination": 97.4297,
        "meta_ra_of_asc_node": 58.7047,
        "meta_arg_of_pericenter": 110.2469,
        "meta_mean_anomaly": 249.8941,
        "meta_ephemeris_type": 0,
        "meta_classification_type": "U",
        "meta_norad_cat_id": 43111,
        "meta_element_set_no": 999,
        "meta_rev_at_epoch": 44123,
        "meta_bstar": 0.00034673192,
        "meta_mean_motion_dot": 7.246e-05,
        "meta_mean_motion_ddot": 0,
        "tle_line1": "1 43111U 18004A   25361.30426370  .00007246  00000+0  34673-3 0  9999",
        "tle_line2": "2 43111  97.4297  58.7047 0001630 110.2469 249.8941 15.19269909441236"
      },
      "geometry": {
        "type": "Point",
        "coordinates": [
          -123.73434821457775,
          -19.640562048280184
        ]
      }
    },
    {
      "type": "Feature",
      "properties": {
        "norad_id": 43259,
        "name": "GAOFEN-1 02",
        "group": "resource",
        "lat": -28.653266699807833,
        "lon": -125.11980719468838,
        "alt_km": 645.0541908378755,
        "timestamp": "2025-12-27T12:55:14.144623+00:00",
        "meta_object_name": "GAOFEN-1 02",
        "meta_object_id": "2018-031A",
        "meta_epoch": "2025-12-27T07:05:53.242368",
        "meta_mean_motion": 14.76445395,
        "meta_eccentricity": 0.00027647,
        "meta_inclination": 98.0783,
        "meta_ra_of_asc_node": 59.0887,
        "meta_arg_of_pericenter": 165.3904,
        "meta_mean_anomaly": 194.7386,
        "meta_ephemeris_type": 0,
        "meta_classification_type": "U",
        "meta_norad_cat_id": 43259,
        "meta_element_set_no": 999,
        "meta_rev_at_epoch": 41733,
        "meta_bstar": 0.00015117312,
        "meta_mean_motion_dot": 1e-05,
        "meta_mean_motion_ddot": 0,
        "tle_line1": "1 43259U 18031A   25361.29575512  .00001000  00000+0  15117-3 0  9997",
        "tle_line2": "2 43259  98.0783  59.0887 0002764 165.3904 194.7386 14.76445395417338"
      },
      "geometry": {
        "type": "Point",
        "coordinates": [
          -125.11980719468838,
          -28.653266699807833
        ]
      }
    },
    {
      "type": "Feature",
      "properties": {
        "norad_id": 43260,
        "name": "GAOFEN-1 03",
        "group": "resource",
        "lat": -34.75381548650936,
        "lon": 64.86221397935203,
        "alt_km": 646.6343846216987,
        "timestamp": "2025-12-27T12:55:14.144633+00:00",
        "meta_object_name": "GAOFEN-1 03",
        "meta_object_id": "2018-031B",
        "meta_epoch": "2025-12-27T06:34:24.229920",
        "meta_mean_motion": 14.76428919,
        "meta_eccentricity": 0.00016688,
        "meta_inclination": 98.0778,
        "meta_ra_of_asc_node": 58.9428,
        "meta_arg_of_pericenter": 247.7257,
        "meta_mean_anomaly": 112.3776,
        "meta_ephemeris_type": 0,
        "meta_classification_type": "U",
        "meta_norad_cat_id": 43260,
        "meta_element_set_no": 999,
        "meta_rev_at_epoch": 41732,
        "meta_bstar": 0.00015866179,
        "meta_mean_motion_dot": 1.051e-05,
        "meta_mean_motion_ddot": 0,
        "tle_line1": "1 43260U 18031B   25361.27389155  .00001051  00000+0  15866-3 0  9990",
        "tle_line2": "2 43260  98.0778  58.9428 0001668 247.7257 112.3776 14.76428919417322"
      },
      "geometry": {
        "type": "Point",
        "coordinates": [
          64.86221397935203,
          -34.75381548650936
        ]
      }
    }
  ]
}